{"type": "FeatureCollection", "features": [ {"type": "Feature", "properties": {"norad_id": 66396, "name": "STARLINK-35669", "group": "last-30-days", "lat": 32.643598376037005, "lon": 92.18447429869414, "alt_km": 413.33129394348, "timestamp": "2025-12-04T23:34:04.489658+00:00", "meta": {"OBJECT_NAME": "STARLINK-35669", "OBJECT_ID": "2025-257S", "EPOCH": "2025-12-04T09:02:39.769152", "MEAN_MOTION": 15.49365522, "ECCENTRICITY": 0.0001327, "INCLINATION": 53.1591, "RA_OF_ASC_NODE": 303.7835, "ARG_OF_PERICENTER": 104.0612, "MEAN_ANOMALY": 256.0545, "EPHEMERIS_TYPE": 0, "CLASSIFICATION_TYPE": "U", "NORAD_CAT_ID": 66396, "ELEMENT_SET_NO": 999, "REV_AT_EPOCH": 508, "BSTAR": 0.0021205, "MEAN_MOTION_DOT": 0.00119543, "MEAN_MOTION_DDOT": 0}, "tle": {"line1": "1 66396U 25257S   25338.37684918  .00119543  00000+0  21205-2 0  9992", "line2": "2 66396  53.1591 303.7835 0001327 104.0612 256.0545 15.49365522  5084"}}, "geometry": {"type": "Point", "coordinates": [92.18447429869414, 32.643598376037005]}}, {"type": "Feature", "properties": {"norad_id": 66397, "name": "STARLINK-35510", "group": "last-30-days", "lat": 31.330366828381315, "lon": 93.73034866082004, "alt_km": 413.75861492233616, "timestamp": "2025-12-04T23:34:04.489668+00:00", "meta": {"OBJECT_NAME": "STARLINK-35510", "OBJECT_ID": "2025-257T", "EPOCH": "2025-12-04T09:02:10.176288", "MEAN_MOTION": 15.49355172, "ECCENTRICITY": 0.0001328, "INCLINATION": 53.1593, "RA_OF_ASC_NODE": 303.7814, "ARG_OF_PERICENTER": 96.2054, "MEAN_ANOMALY": 263.9107, "EPHEMERIS_TYPE": 0, "CLASSIFICATION_TYPE": "U", "NORAD_CAT_ID": 66397, "ELEMENT_SET_NO": 999, "REV_AT_EPOCH": 508, "BSTAR": 0.0016344, "MEAN_MOTION_DOT": 0.00091673, "MEAN_MOTION_DDOT": 0}, "tle": {"line1": "1 66397U 25257T   25338.37650667  .00091673  00000+0  16344-2 0  9998", "line2": "2 66397  53.1593 303.7814 0001328  96.2054 263.9107 15.49355172  5088"}}, "geometry": {"type": "Point", "coordinates": [93.73034866082004, 31.330366828381315]}}, {"type": "Feature", "properties": {"norad_id": 66398, "name": "STARLINK-35642", "group": "last-30-days", "lat": 29.855133723106267, "lon": 95.39071726898453, "alt_km": 413.89999064354015, "timestamp": "2025-12-04T23:34:04.489678+00:00", "meta": {"OBJECT_NAME": "STARLINK-35642", "OBJECT_ID": "2025-257U", "EPOCH": "2025-12-04T09:01:40.325088", "MEAN_MOTION": 15.49380516, "ECCENTRICITY": 0.0001351, "INCLINATION": 53.1593, "RA_OF_ASC_NODE": 303.7781, "ARG_OF_PERICENTER": 84.2125, "MEAN_ANOMALY": 275.9038, "EPHEMERIS_TYPE": 0, "CLASSIFICATION_TYPE": "U", "NORAD_CAT_ID": 66398, "ELEMENT_SET_NO": 999, "REV_AT_EPOCH": 508, "BSTAR": 0.0025546, "MEAN_MOTION_DOT": 0.00144651, "MEAN_MOTION_DDOT": 0}, "tle": {"line1": "1 66398U 25257U   25338.37616117  .00144651  00000+0  25546-2 0  9990", "line2": "2 66398  53.1593 303.7781 0001351  84.2125 275.9038 15.49380516  5080"}}, "geometry": {"type": "Point", "coordinates": [95.39071726898453, 29.855133723106267]}}, {"type": "Feature", "properties": {"norad_id": 66399, "name": "STARLINK-35657", "group": "last-30-days", "lat": 28.639987229005104, "lon": 96.70771755406182, "alt_km": 414.30203874034214, "timestamp": "2025-12-04T23:34:04.489688+00:00", "meta": {"OBJECT_NAME": "STARLINK-35657", "OBJECT_ID": "2025-257V", "EPOCH": "2025-12-04T15:12:45.135936", "MEAN_MOTION": 15.49347537, "ECCENTRICITY": 0.0001599, "INCLINATION": 53.1593, "RA_OF_ASC_NODE": 302.5434, "ARG_OF_PERICENTER": 83.6816, "MEAN_ANOMALY": 276.4375, "EPHEMERIS_TYPE": 0, "CLASSIFICATION_TYPE": "U", "NORAD_CAT_ID": 66399, "ELEMENT_SET_NO": 999, "REV_AT_EPOCH": 512, "BSTAR": 0.003075, "MEAN_MOTION_DOT": 0.00174685, "MEAN_MOTION_DDOT": 0}, "tle": {"line1": "1 66399U 25257V   25338.63385574  .00174685  00000+0  30750-2 0  9993", "line2": "2 66399  53.1593 302.5434 0001599  83.6816 276.4375 15.49347537  5128"}}, "geometry": {"type": "Point", "coordinates": [96.70771755406182, 28.639987229005104]}}, {"type": "Feature", "properties": {"norad_id": 66400, "name": "STARLINK-35667", "group": "last-30-days", "lat": 25.806501327849492, "lon": 99.61314669870417, "alt_km": 414.8339828478847, "timestamp": "2025-12-04T23:34:04.489699+00:00", "meta": {"OBJECT_NAME": "STARLINK-35667", "OBJECT_ID": "2025-257W", "EPOCH": "2025-12-04T15:11:45.785184", "MEAN_MOTION": 15.4934846, "ECCENTRICITY": 0.000164, "INCLINATION": 53.1595, "RA_OF_ASC_NODE": 302.5381, "ARG_OF_PERICENTER": 82.5247, "MEAN_ANOMALY": 277.5949, "EPHEMERIS_TYPE": 0, "CLASSIFICATION_TYPE": "U", "NORAD_CAT_ID": 66400, "ELEMENT_SET_NO": 999, "REV_AT_EPOCH": 512, "BSTAR": 0.0030129, "MEAN_MOTION_DOT": 0.00171072, "MEAN_MOTION_DDOT": 0}, "tle": {"line1": "1 66400U 25257W   25338.63316881  .00171072  00000+0  30129-2 0  9998", "line2": "2 66400  53.1595 302.5381 0001640  82.5247 277.5949 15.49348460  5122"}}, "geometry": {"type": "Point", "coordinates": [99.61314669870417, 25.806501327849492]}}, {"type": "Feature", "properties": {"norad_id": 66401, "name": "STARLINK-35668", "group": "last-30-days", "lat": 24.41121416851682, "lon": 100.9723303420748, "alt_km": 415.34466771659754, "timestamp": "2025-12-04T23:34:04.489711+00:00", "meta": {"OBJECT_NAME": "STARLINK-35668", "OBJECT_ID": "2025-257X", "EPOCH": "2025-12-04T15:11:15.967680", "MEAN_MOTION": 15.49327269, "ECCENTRICITY": 0.0001383, "INCLINATION": 53.1594, "RA_OF_ASC_NODE": 302.536, "ARG_OF_PERICENTER": 84.7482, "MEAN_ANOMALY": 275.3685, "EPHEMERIS_TYPE": 0, "CLASSIFICATION_TYPE": "U", "NORAD_CAT_ID": 66401, "ELEMENT_SET_NO": 999, "REV_AT_EPOCH": 512, "BSTAR": 0.0016591, "MEAN_MOTION_DOT": 0.00092988, "MEAN_MOTION_DDOT": 0}, "tle": {"line1": "1 66401U 25257X   25338.63282370  .00092988  00000+0  16591-2 0  9999", "line2": "2 66401  53.1594 302.5360 0001383  84.7482 275.3685 15.49327269  5125"}}, "geometry": {"type": "Point", "coordinates": [100.9723303420748, 24.41121416851682]}}, {"type": "Feature", "properties": {"norad_id": 66402, "name": "STARLINK-35644", "group": "last-30-days", "lat": 27.11475429954662, "lon": 98.29666451755544, "alt_km": 414.4331338754773, "timestamp": "2025-12-04T23:34:04.489721+00:00", "meta": {"OBJECT_NAME": "STARLINK-35644", "OBJECT_ID": "2025-257Y", "EPOCH": "2025-12-04T09:00:41.115168", "MEAN_MOTION": 15.49361816, "ECCENTRICITY": 0.0001366, "INCLINATION": 53.1595, "RA_OF_ASC_NODE": 303.7737, "ARG_OF_PERICENTER": 92.3503, "MEAN_ANOMALY": 267.7663, "EPHEMERIS_TYPE": 0, "CLASSIFICATION_TYPE": "U", "NORAD_CAT_ID": 66402, "ELEMENT_SET_NO": 999, "REV_AT_EPOCH": 508, "BSTAR": 0.0020479, "MEAN_MOTION_DOT": 0.00115355, "MEAN_MOTION_DDOT": 0}, "tle": {"line1": "1 66402U 25257Y   25338.37547587  .00115355  00000+0  20479-2 0  9999", "line2": "2 66402  53.1595 303.7737 0001366  92.3503 267.7663 15.49361816  5080"}}, "geometry": {"type": "Point", "coordinates": [98.29666451755544, 27.11475429954662]}}, {"type": "Feature", "properties": {"norad_id": 66403, "name": "STARLINK-35602", "group": "last-30-days", "lat": 22.925231155636922, "lon": 102.37457229629722, "alt_km": 415.73124027330323, "timestamp": "2025-12-04T23:34:04.489732+00:00", "meta": {"OBJECT_NAME": "STARLINK-35602", "OBJECT_ID": "2025-257Z", "EPOCH": "2025-12-04T12:04:59.236032", "MEAN_MOTION": 15.49333398, "ECCENTRICITY": 0.0001642, "INCLINATION": 53.1594, "RA_OF_ASC_NODE": 303.1506, "ARG_OF_PERICENTER": 71.9763, "MEAN_ANOMALY": 288.1425, "EPHEMERIS_TYPE": 0, "CLASSIFICATION_TYPE": "U", "NORAD_CAT_ID": 66403, "ELEMENT_SET_NO": 999, "REV_AT_EPOCH": 510, "BSTAR": 0.0013174, "MEAN_MOTION_DOT": 0.00073579, "MEAN_MOTION_DDOT": 0}, "tle": {"line1": "1 66403U 25257Z   25338.50346338  .00073579  00000+0  13174-2 0  9991", "line2": "2 66403  53.1594 303.1506 0001642  71.9763 288.1425 15.49333398  5106"}}, "geometry": {"type": "Point", "coordinates": [102.37457229629722, 22.925231155636922]}}, {"type": "Feature", "properties": {"norad_id": 66404, "name": "STARLINK-35691", "group": "last-30-days", "lat": 21.43650089755987, "lon": 103.7374692571933, "alt_km": 415.45089537646436, "timestamp": "2025-12-04T23:34:04.489742+00:00", "meta": {"OBJECT_NAME": "STARLINK-35691", "OBJECT_ID": "2025-257AA", "EPOCH": "2025-12-04T15:10:17.080032", "MEAN_MOTION": 15.49358169, "ECCENTRICITY": 0.0002641, "INCLINATION": 53.1593, "RA_OF_ASC_NODE": 302.5309, "ARG_OF_PERICENTER": 77.8032, "MEAN_ANOMALY": 282.3272, "EPHEMERIS_TYPE": 0, "CLASSIFICATION_TYPE": "U", "NORAD_CAT_ID": 66404, "ELEMENT_SET_NO": 999, "REV_AT_EPOCH": 512, "BSTAR": 0.0035186, "MEAN_MOTION_DOT": 0.00200705, "MEAN_MOTION_DDOT": 0}, "tle": {"line1": "1 66404U 25257AA  25338.63214213  .00200705  00000+0  35186-2 0  9992", "line2": "2 66404  53.1593 302.5309 0002641  77.8032 282.3272 15.49358169  5125"}}, "geometry": {"type": "Point", "coordinates": [103.7374692571933, 21.43650089755987]}}, {"type": "Feature", "properties": {"norad_id": 66405, "name": "STARLINK-35683", "group": "last-30-days", "lat": 19.977370347940468, "lon": 105.03667148654655, "alt_km": 415.74364778225845, "timestamp": "2025-12-04T23:34:04.489752+00:00", "meta": {"OBJECT_NAME": "STARLINK-35683", "OBJECT_ID": "2025-257AB", "EPOCH": "2025-12-04T15:09:46.992960", "MEAN_MOTION": 15.49351449, "ECCENTRICITY": 0.0001518, "INCLINATION": 53.1592, "RA_OF_ASC_NODE": 302.5279, "ARG_OF_PERICENTER": 92.4448, "MEAN_ANOMALY": 267.6735, "EPHEMERIS_TYPE": 0, "CLASSIFICATION_TYPE": "U", "NORAD_CAT_ID": 66405, "ELEMENT_SET_NO": 999, "REV_AT_EPOCH": 505, "BSTAR": 0.0031464, "MEAN_MOTION_DOT": 0.00178873, "MEAN_MOTION_DDOT": 0}, "tle": {"line1": "1 66405U 25257AB  25338.63179390  .00178873  00000+0  31464-2 0  9994", "line2": "2 66405  53.1592 302.5279 0001518  92.4448 267.6735 15.49351449  5053"}}, "geometry": {"type": "Point", "coordinates": [105.03667148654655, 19.977370347940468]}}]}